[{"OBJECT_NAME":"ONEWEB-0685","OBJECT_ID":"2022-166AP","EPOCH":"2026-05-06T09:12:49.970016","MEAN_MOTION":13.21816924,"ECCENTRICITY":0.0002136,"INCLINATION":87.9231,"RA_OF_ASC_NODE":252.3028,"ARG_OF_PERICENTER":98.019,"MEAN_ANOMALY":262.1186,"EPHEMERIS_TYPE":0,"CLASSIFICATION_TYPE":"U","NORAD_CAT_ID":54679,"ELEMENT_SET_NO":999,"REV_AT_EPOCH":16589,"BSTAR":9.473500000000002e-06,"MEAN_MOTION_DOT":1.7e-07,"MEAN_MOTION_DDOT":0.0},{"OBJECT_NAME":"ONEWEB-0712","OBJECT_ID":"2022-166AQ","EPOCH":"2026-05-06T13:34:34.508352","MEAN_MOTION":13.16594796,"ECCENTRICITY":0.0002255,"INCLINATION":87.9096,"RA_OF_ASC_NODE":237.0382,"ARG_OF_PERICENTER":91.437,"MEAN_ANOMALY":268.7019,"EPHEMERIS_TYPE":0,"CLASSIFICATION_TYPE":"U","NORAD_CAT_ID":54680,"ELEMENT_SET_NO":999,"REV_AT_EPOCH":16658,"BSTAR":-0.00013350000000000002,"MEAN_MOTION_DOT":-3.8e-07,"MEAN_MOTION_DDOT":0.0},{"OBJECT_NAME":"ONEWEB-0714","OBJECT_ID":"2022-166AR","EPOCH":"2026-05-06T07:30:57.398976","MEAN_MOTION":13.21824606,"ECCENTRICITY":0.00021,"INCLINATION":87.9231,"RA_OF_ASC_NODE":252.3131,"ARG_OF_PERICENTER":96.0525,"MEAN_ANOMALY":264.0848,"EPHEMERIS_TYPE":0,"CLASSIFICATION_TYPE":"U","NORAD_CAT_ID":54681,"ELEMENT_SET_NO":999,"REV_AT_EPOCH":16600,"BSTAR":0.00011266,"MEAN_MOTION_DOT":6e-07,"MEAN_MOTION_DDOT":0.0},{"OBJECT_NAME":"ONEWEB-0532","OBJECT_ID":"2023-004A","EPOCH":"2026-05-06T15:33:18.965088","MEAN_MOTION":13.17648975,"ECCENTRICITY":0.0001648,"INCLINATION":87.9173,"RA_OF_ASC_NODE":14.1212,"ARG_OF_PERICENTER":93.4667,"MEAN_ANOMALY":266.6653,"EPHEMERIS_TYPE":0,"CLASSIFICATION_TYPE":"U","NORAD_CAT_ID":55140,"ELEMENT_SET_NO":999,"REV_AT_EPOCH":16211,"BSTAR":6.5862e-05,"MEAN_MOTION_DOT":3.8e-07,"MEAN_MOTION_DDOT":0.0},{"OBJECT_NAME":"ONEWEB-0533","OBJECT_ID":"2023-004B","EPOCH":"2026-05-06T14:28:36.956064","MEAN_MOTION":13.12444111,"ECCENTRICITY":0.0001973,"INCLINATION":87.8983,"RA_OF_ASC_NODE":358.936,"ARG_OF_PERICENTER":84.426,"MEAN_ANOMALY":275.7094,"EPHEMERIS_TYPE":0,"CLASSIFICATION_TYPE":"U","NORAD_CAT_ID":55141,"ELEMENT_SET_NO":999,"REV_AT_EPOCH":16260,"BSTAR":-0.0007585,"MEAN_MOTION_DOT":-2.6e-06,"MEAN_MOTION_DDOT":0.0},{"OBJECT_NAME":"ONEWEB-0541","OBJECT_ID":"2023-004C","EPOCH":"2026-05-06T10:45:03.289536","MEAN_MOTION":13.11416518,"ECCENTRICITY":0.0001667,"INCLINATION":87.8932,"RA_OF_ASC_NODE":29.3547,"ARG_OF_PERICENTER":78.7785,"MEAN_ANOMALY":281.353,"EPHEMERIS_TYPE":0,"CLASSIFICATION_TYPE":"U","NORAD_CAT_ID":55142,"ELEMENT_SET_NO":999,"REV_AT_EPOCH":16047,"BSTAR":-0.0022281000000000002,"MEAN_MOTION_DOT":-7.77e-06,"MEAN_MOTION_DDOT":0.0},{"OBJECT_NAME":"ONEWEB-0543","OBJECT_ID":"2023-004D","EPOCH":"2026-05-06T03:04:44.351040","MEAN_MOTION":13.18686328,"ECCENTRICITY":0.0001949,"INCLINATION":87.9176,"RA_OF_ASC_NODE":343.8412,"ARG_OF_PERICENTER":78.5533,"MEAN_ANOMALY":281.5818,"EPHEMERIS_TYPE":0,"CLASSIFICATION_TYPE":"U","NORAD_CAT_ID":55143,"ELEMENT_SET_NO":999,"REV_AT_EPOCH":16415,"BSTAR":0.00034624,"MEAN_MOTION_DOT":1.49e-06,"MEAN_MOTION_DDOT":0.0},{"OBJECT_NAME":"ONEWEB-0544","OBJECT_ID":"2023-004E","EPOCH":"2026-05-06T08:22:46.999776","MEAN_MOTION":13.186845,"ECCENTRICITY":0.0001714,"INCLINATION":87.9179,"RA_OF_ASC_NODE":343.7969,"ARG_OF_PERICENTER":78.7152,"MEAN_ANOMALY":281.4173,"EPHEMERIS_TYPE":0,"CLASSIFICATION_TYPE":"U","NORAD_CAT_ID":55144,"ELEMENT_SET_NO":999,"REV_AT_EPOCH":16418,"BSTAR":0.00013316,"MEAN_MOTION_DOT":6.5e-07,"MEAN_MOTION_DDOT":0.0},{"OBJECT_NAME":"ONEWEB-0560","OBJECT_ID":"2023-004F","EPOCH":"2026-05-06T08:13:04.430496","MEAN_MOTION":13.18685463,"ECCENTRICITY":0.0001648,"INCLINATION":87.9172,"RA_OF_ASC_NODE":343.787,"ARG_OF_PERICENTER":76.1589,"MEAN_ANOMALY":283.9727,"EPHEMERIS_TYPE":0,"CLASSIFICATION_TYPE":"U","NORAD_CAT_ID":55145,"ELEMENT_SET_NO":999,"REV_AT_EPOCH":16419,"BSTAR":-0.00020203,"MEAN_MOTION_DOT":-6.7e-07,"MEAN_MOTION_DDOT":0.0},{"OBJECT_NAME":"ONEWEB-0565","OBJECT_ID":"2023-004G","EPOCH":"2026-05-06T13:31:08.558400","MEAN_MOTION":13.18684023,"ECCENTRICITY":0.0001395,"INCLINATION":87.9168,"RA_OF_ASC_NODE":343.7746,"ARG_OF_PERICENTER":84.7661,"MEAN_ANOMALY":275.363,"EPHEMERIS_TYPE":0,"CLASSIFICATION_TYPE":"U","NORAD_CAT_ID":55146,"ELEMENT_SET_NO":999,"REV_AT_EPOCH":16421,"BSTAR":-9.032800000000001e-06,"MEAN_MOTION_DOT":9e-08,"MEAN_MOTION_DDOT":0.0},{"OBJECT_NAME":"ONEWEB-0567","OBJECT_ID":"2023-004H","EPOCH":"2026-05-06T07:53:38.567904","MEAN_MOTION":13.18684314,"ECCENTRICITY":0.0001486,"INCLINATION":87.9179,"RA_OF_ASC_NODE":343.8023,"ARG_OF_PERICENTER":78.469,"MEAN_ANOMALY":281.6609,"EPHEMERIS_TYPE":0,"CLASSIFICATION_TYPE":"U","NORAD_CAT_ID":55147,"ELEMENT_SET_NO":999,"REV_AT_EPOCH":16418,"BSTAR":-2.0546e-06,"MEAN_MOTION_DOT":1.2e-07,"MEAN_MOTION_DDOT":0.0},{"OBJECT_NAME":"ONEWEB-0569","OBJECT_ID":"2023-004J","EPOCH":"2026-05-06T06:18:25.831008","MEAN_MOTION":13.13471095,"ECCENTRICITY":0.0001506,"INCLINATION":87.8961,"RA_OF_ASC_NODE":328.5682,"ARG_OF_PERICENTER":51.4077,"MEAN_ANOMALY":308.7187,"EPHEMERIS_TYPE":0,"CLASSIFICATION_TYPE":"U","NORAD_CAT_ID":55148,"ELEMENT_SET_NO":999,"REV_AT_EPOCH":16467,"BSTAR":0.00051435,"MEAN_MOTION_DOT":2.01e-06,"MEAN_MOTION_DDOT":0.0},{"OBJECT_NAME":"ONEWEB-0570","OBJECT_ID":"2023-004K","EPOCH":"2026-05-06T07:41:33.428256","MEAN_MOTION":13.18686325,"ECCENTRICITY":0.0001565,"INCLINATION":87.9176,"RA_OF_ASC_NODE":343.8022,"ARG_OF_PERICENTER":97.9699,"MEAN_ANOMALY":262.161,"EPHEMERIS_TYPE":0,"CLASSIFICATION_TYPE":"U","NORAD_CAT_ID":55149,"ELEMENT_SET_NO":999,"REV_AT_EPOCH":16417,"BSTAR":0.00031152999999999997,"MEAN_MOTION_DOT":1.36e-06,"MEAN_MOTION_DDOT":0.0},{"OBJECT_NAME":"ONEWEB-0571","OBJECT_ID":"2023-004L","EPOCH":"2026-05-06T07:31:50.509056","MEAN_MOTION":13.18686768,"ECCENTRICITY":8.33e-05,"INCLINATION":87.9179,"RA_OF_ASC_NODE":343.8023,"ARG_OF_PERICENTER":47.0781,"MEAN_ANOMALY":313.0421,"EPHEMERIS_TYPE":0,"CLASSIFICATION_TYPE":"U","NORAD_CAT_ID":55150,"ELEMENT_SET_NO":999,"REV_AT_EPOCH":16418,"BSTAR":0.00031058999999999997,"MEAN_MOTION_DOT":1.35e-06,"MEAN_MOTION_DDOT":0.0},{"OBJECT_NAME":"ONEWEB-0572","OBJECT_ID":"2023-004M","EPOCH":"2026-05-06T14:27:42.505920","MEAN_MOTION":13.17649403,"ECCENTRICITY":0.0001608,"INCLINATION":87.9172,"RA_OF_ASC_NODE":14.1316,"ARG_OF_PERICENTER":79.5455,"MEAN_ANOMALY":280.5858,"EPHEMERIS_TYPE":0,"CLASSIFICATION_TYPE":"U","NORAD_CAT_ID":55151,"ELEMENT_SET_NO":999,"REV_AT_EPOCH":16200,"BSTAR":-3.88e-05,"MEAN_MOTION_DOT":-2e-08,"MEAN_MOTION_DDOT":0.0},{"OBJECT_NAME":"ONEWEB-0573","OBJECT_ID":"2023-004N","EPOCH":"2026-05-06T07:22:06.415680","MEAN_MOTION":13.18688356,"ECCENTRICITY":9.94e-05,"INCLINATION":87.9175,"RA_OF_ASC_NODE":343.8051,"ARG_OF_PERICENTER":68.317,"MEAN_ANOMALY":291.8068,"EPHEMERIS_TYPE":0,"CLASSIFICATION_TYPE":"U","NORAD_CAT_ID":55152,"ELEMENT_SET_NO":999,"REV_AT_EPOCH":16417,"BSTAR":0.00031305,"MEAN_MOTION_DOT":1.36e-06,"MEAN_MOTION_DDOT":0.0}]