ONEWEB-0685             
1 54679U 22166AP  26126.38391169  .00000017  00000+0  94735-5 0  9995
2 54679  87.9231 252.3028 0002136  98.0190 262.1186 13.21816924165896
ONEWEB-0712             
1 54680U 22166AQ  26126.56567718 -.00000038  00000+0 -13350-3 0  9999
2 54680  87.9096 237.0382 0002255  91.4370 268.7019 13.16594796166587
ONEWEB-0714             
1 54681U 22166AR  26126.31316434  .00000060  00000+0  11266-3 0  9997
2 54681  87.9231 252.3131 0002100  96.0525 264.0848 13.21824606166001
ONEWEB-0532             
1 55140U 23004A   26126.64813617  .00000038  00000+0  65862-4 0  9998
2 55140  87.9173  14.1212 0001648  93.4667 266.6653 13.17648975162113
ONEWEB-0533             
1 55141U 23004B   26126.60320551 -.00000260  00000+0 -75850-3 0  9991
2 55141  87.8983 358.9360 0001973  84.4260 275.7094 13.12444111162600
ONEWEB-0541             
1 55142U 23004C   26126.44795474 -.00000777  00000+0 -22281-2 0  9996
2 55142  87.8932  29.3547 0001667  78.7785 281.3530 13.11416518160479
ONEWEB-0543             
1 55143U 23004D   26126.12829110  .00000149  00000+0  34624-3 0  9993
2 55143  87.9176 343.8412 0001949  78.5533 281.5818 13.18686328164153
ONEWEB-0544             
1 55144U 23004E   26126.34915509  .00000065  00000+0  13316-3 0  9998
2 55144  87.9179 343.7969 0001714  78.7152 281.4173 13.18684500164188
ONEWEB-0560             
1 55145U 23004F   26126.34241239 -.00000067  00000+0 -20203-3 0  9998
2 55145  87.9172 343.7870 0001648  76.1589 283.9727 13.18685463164197
ONEWEB-0565             
1 55146U 23004G   26126.56329350  .00000009  00000+0 -90328-5 0  9996
2 55146  87.9168 343.7746 0001395  84.7661 275.3630 13.18684023164212
ONEWEB-0567             
1 55147U 23004H   26126.32891861  .00000012  00000+0 -20546-5 0  9991
2 55147  87.9179 343.8023 0001486  78.4690 281.6609 13.18684314164182
ONEWEB-0569             
1 55148U 23004J   26126.26279897  .00000201  00000+0  51435-3 0  9992
2 55148  87.8961 328.5682 0001506  51.4077 308.7187 13.13471095164676
ONEWEB-0570             
1 55149U 23004K   26126.32052579  .00000136  00000+0  31153-3 0  9998
2 55149  87.9176 343.8022 0001565  97.9699 262.1610 13.18686325164172
ONEWEB-0571             
1 55150U 23004L   26126.31377904  .00000135  00000+0  31059-3 0  9995
2 55150  87.9179 343.8023 0000833  47.0781 313.0421 13.18686768164181
ONEWEB-0572             
1 55151U 23004M   26126.60257530 -.00000002  00000+0 -38800-4 0  9997
2 55151  87.9172  14.1316 0001608  79.5455 280.5858 13.17649403162002
ONEWEB-0573             
1 55152U 23004N   26126.30701870  .00000136  00000+0  31305-3 0  9994
2 55152  87.9175 343.8051 0000994  68.3170 291.8068 13.18688356164170
